NORAD_CAT_ID,OBJECT_NAME,OBJECT_TYPE,EPOCH,MEAN_MOTION,ECCENTRICITY,INCLINATION,RA_OF_ASC_NODE,ARG_OF_PERICENTER,MEAN_ANOMALY,BSTAR,MEAN_MOTION_DOT,MEAN_MOTION_DDOT,TLE_LINE0,TLE_LINE1,TLE_LINE2,SEMIMAJOR_AXIS,PERIOD,APOGEE,PERIGEE,DECAYED
52131.0,STARLINK-3711,PAYLOAD,2024-01-20 03:53:13,15.0884363,0.0001446,53.2191,328.5532,90.9936,269.1222,4.9204e-05,4.95e-06,0.0,0 STARLINK-3711,1 52131U 22029AV  24020.16196163  .00000495  00000-0  49204-4 0  9999,2 52131  53.2191 328.5532 0001446  90.9936 269.1222 15.08843630103257,6917.869,95.437,540.735,538.734,0.0
52131.0,STARLINK-3711,PAYLOAD,2024-01-20 05:28:36,15.0884587,0.0001518,53.2189,328.2546,96.8971,263.2194,8.5174e-05,1.068e-05,0.0,0 STARLINK-3711,1 52131U 22029AV  24020.22819878  .00001068  00000-0  85174-4 0  9994,2 52131  53.2189 328.2546 0001518  96.8971 263.2194 15.08845870103262,6917.862,95.437,540.778,538.677,0.0
52131.0,STARLINK-3711,PAYLOAD,2024-01-20 19:47:05,15.08832531,0.0001674,53.2182,325.5821,96.3092,263.8091,8.3957e-06,-1.54e-06,0.0,0 STARLINK-3711,1 52131U 22029AV  24020.82437141 -.00000154  00000-0  83957-5 0  9993,2 52131  53.2182 325.5821 0001674  96.3092 263.8091 15.08832531103355,6917.903,95.438,540.926,538.61,0.0
52131.0,STARLINK-3711,PAYLOAD,2024-01-21 03:44:01,15.08843694,0.0001461,53.2183,324.0957,89.3356,270.7803,-7.698e-05,-1.513e-05,0.0,0 STARLINK-3711,1 52131U 22029AV  24021.15556822 -.00001513  00000-0 -76980-4 0  9996,2 52131  53.2183 324.0957 0001461  89.3356 270.7803 15.08843694103405,6917.869,95.437,540.745,538.723,0.0
52131.0,STARLINK-3711,PAYLOAD,2024-01-21 19:37:52,15.08838574,0.0001554,53.2181,321.1222,80.1609,279.9559,-2.984e-05,-7.63e-06,0.0,0 STARLINK-3711,1 52131U 22029AV  24021.81797232 -.00000763  00000-0 -29840-4 0  9990,2 52131  53.2181 321.1222 0001554  80.1609 279.9559 15.08838574103500,6917.885,95.438,540.825,538.675,0.0
52131.0,STARLINK-3711,PAYLOAD,2024-01-22 05:10:10,15.08849022,0.0001573,53.2181,319.3386,76.9539,283.1629,0.00011711,1.577e-05,0.0,0 STARLINK-3711,1 52131U 22029AV  24022.21539974  .00001577  00000-0  11711-3 0  9991,2 52131  53.2181 319.3386 0001573  76.9539 283.1629 15.08849022103567,6917.853,95.437,540.806,538.63,0.0
52131.0,STARLINK-3711,PAYLOAD,2024-01-23 01:50:12,15.08839542,0.0001614,53.2175,315.469,113.1673,246.949,-3.1046e-06,-3.37e-06,0.0,0 STARLINK-3711,1 52131U 22029AV  24023.07652805 -.00000337  00000-0 -31046-5 0  9995,2 52131  53.2175 315.4690 0001614 113.1673 246.9490 15.08839542103697,6917.882,95.438,540.863,538.63,0.0
52131.0,STARLINK-3711,PAYLOAD,2024-01-23 22:30:12,15.08848249,0.0001747,53.2183,311.6013,122.1131,238.0031,-5.6413e-05,-1.186e-05,0.0,0 STARLINK-3711,1 52131U 22029AV  24023.93764486 -.00001186  00000-0 -56413-4 0  9996,2 52131  53.2183 311.6013 0001747 122.1131 238.0031 15.08848249103821,6917.855,95.437,540.929,538.512,0.0
52131.0,STARLINK-3711,PAYLOAD,2024-01-24 01:40:58,15.08850346,0.0001658,53.2181,311.0046,115.3996,244.7168,-4.4494e-05,-9.96e-06,0.0,0 STARLINK-3711,1 52131U 22029AV  24024.07012286 -.00000996  00000-0 -44494-4 0  9990,2 52131  53.2181 311.0046 0001658 115.3996 244.7168 15.08850346103841,6917.849,95.437,540.861,538.567,0.0
52131.0,STARLINK-3711,PAYLOAD,2024-01-24 22:20:58,15.08848214,0.0001952,53.2188,307.1492,122.3104,237.8078,7.7333e-05,9.43e-06,0.0,0 STARLINK-3711,1 52131U 22029AV  24024.93123649  .00000943  00000-0  77333-4 0  9999,2 52131  53.2188 307.1492 0001952 122.3104 237.8078 15.08848214103973,6917.855,95.437,541.071,538.37,0.0
52131.0,STARLINK-3711,PAYLOAD,2024-01-25 01:31:45,15.08846711,0.0001509,53.2178,306.5522,112.4132,247.702,-9.5452e-06,-4.4e-06,0.0,0 STARLINK-3711,1 52131U 22029AV  24025.06372045 -.00000440  00000-0 -95452-5 0  9997,2 52131  53.2178 306.5522 0001509 112.4132 247.7020 15.08846711103997,6917.86,95.437,540.769,538.681,0.0
52131.0,STARLINK-3711,PAYLOAD,2024-01-25 22:11:47,15.08832922,0.0001491,53.2177,302.6856,110.4571,249.6581,-0.00013208,-2.389e-05,0.0,0 STARLINK-3711,1 52131U 22029AV  24025.92485511 -.00002389  00000-0 -13208-3 0  9996,2 52131  53.2177 302.6856 0001491 110.4571 249.6581 15.08832922104126,6917.902,95.438,540.798,538.736,0.0
52131.0,STARLINK-3711,PAYLOAD,2024-01-26 01:22:33,15.08837124,0.0001662,53.2185,302.092,117.3199,242.7962,-7.8655e-05,-1.54e-05,0.0,0 STARLINK-3711,1 52131U 22029AV  24026.05733087 -.00001540  00000-0 -78655-4 0  9991,2 52131  53.2185 302.0920 0001662 117.3199 242.7962 15.08837124104141,6917.889,95.438,540.904,538.604,0.0
52131.0,STARLINK-3711,PAYLOAD,2024-01-26 23:37:57,15.08833214,0.0001668,53.2188,297.9303,118.6914,241.4246,4.7244e-06,-2.13e-06,0.0,0 STARLINK-3711,1 52131U 22029AV  24026.98469230 -.00000213  00000-0  47244-5 0  9995,2 52131  53.2188 297.9303 0001668 118.6914 241.4246 15.08833214104288,6917.901,95.438,540.92,538.612,0.0
52131.0,STARLINK-3711,PAYLOAD,2024-01-27 21:53:21,15.08837064,0.0001515,53.2189,293.7687,116.9156,243.1991,6.0271e-05,6.71e-06,0.0,0 STARLINK-3711,1 52131U 22029AV  24027.91205206  .00000671  00000-0  60271-4 0  9991,2 52131  53.2189 293.7687 0001515 116.9156 243.1991 15.08837064104427,6917.889,95.438,540.802,538.706,0.0
52131.0,STARLINK-3711,PAYLOAD,2024-01-28 01:04:07,15.08843931,0.0001223,53.2177,293.1695,87.9146,272.1987,6.9969e-05,8.26e-06,0.0,0 STARLINK-3711,1 52131U 22029AV  24028.04452857  .00000826  00000-0  69969-4 0  9997,2 52131  53.2177 293.1695 0001223  87.9146 272.1987 15.08843931104448,6917.868,95.437,540.579,538.887,0.0
52131.0,STARLINK-3711,PAYLOAD,2024-01-28 21:44:09,15.08833644,0.0001406,53.218,289.3063,78.8076,281.3074,-2.0034e-05,-6.07e-06,0.0,0 STARLINK-3711,1 52131U 22029AV  24028.90566254 -.00000607  00000-0 -20034-4 0  9998,2 52131  53.2180 289.3063 0001406  78.8076 281.3074 15.08833644104575,6917.9,95.438,540.737,538.792,0.0
52131.0,STARLINK-3711,PAYLOAD,2024-01-29 00:54:55,15.08834905,0.0001461,53.2184,288.7119,76.9087,283.2069,-1.6647e-05,-5.53e-06,0.0,0 STARLINK-3711,1 52131U 22029AV  24029.03814230 -.00000553  00000-0 -16647-4 0  9998,2 52131  53.2184 288.7119 0001461  76.9087 283.2069 15.08834905104594,6917.896,95.438,540.772,538.75,0.0
52131.0,STARLINK-3711,PAYLOAD,2024-01-30 23:01:05,15.08840759,0.0001049,53.2157,280.0946,108.2278,251.8828,2.1884e-05,6.1e-07,0.0,0 STARLINK-3711,1 52131U 22029AV  24030.95909539  .00000061  00000-0  21884-4 0  9999,2 52131  53.2157 280.0946 0001049 108.2278 251.8828 15.08840759104880,6917.878,95.438,540.469,539.017,0.0
52131.0,STARLINK-3711,PAYLOAD,2024-01-31 16:30:20,15.08835761,0.0001374,53.2177,276.8164,84.1043,276.0106,6.63e-06,-1.82e-06,0.0,0 STARLINK-3711,1 52131U 22029AV  24031.68774092 -.00000182  00000-0  66300-5 0  9992,2 52131  53.2177 276.8164 0001374  84.1043 276.0106 15.08835761104997,6917.893,95.438,540.709,538.808,0.0
52131.0,STARLINK-3711,PAYLOAD,2024-02-01 16:21:07,15.08835856,0.0001291,53.2166,272.3575,68.3501,291.7628,2.3745e-05,9e-07,0.0,0 STARLINK-3711,1 52131U 22029AV  24032.68133951  .00000090  00000-0  23745-4 0  9998,2 52131  53.2166 272.3575 0001291  68.3501 291.7628 15.08835856105149,6917.893,95.438,540.651,538.865,0.0
52131.0,STARLINK-3711,PAYLOAD,2024-02-02 19:22:41,15.08834188,0.0001282,53.2155,267.2991,88.6034,271.5105,-8.9025e-06,-4.3e-06,0.0,0 STARLINK-3711,1 52131U 22029AV  24033.80742411 -.00000430  00000-0 -89025-5 0  9994,2 52131  53.2155 267.2991 0001282  88.6034 271.5105 15.08834188105310,6917.898,95.438,540.65,538.876,0.0
52131.0,STARLINK-3711,PAYLOAD,2024-02-02 22:33:27,15.08835381,0.000141,53.2165,266.7052,97.6151,262.5002,-4.7359e-07,-2.95e-06,0.0,0 STARLINK-3711,1 52131U 22029AV  24033.93990321 -.00000295  00000-0 -47359-6 0  9997,2 52131  53.2165 266.7052 0001410  97.6151 262.5002 15.08835381105330,6917.895,95.438,540.735,538.784,0.0
52131.0,STARLINK-3711,PAYLOAD,2024-02-03 22:24:14,15.08835872,0.0001411,53.2163,262.2448,96.7589,263.3564,3.9362e-05,3.39e-06,0.0,0 STARLINK-3711,1 52131U 22029AV  24034.93350452  .00000339  00000-0  39362-4 0  9993,2 52131  53.2163 262.2448 0001411  96.7589 263.3564 15.08835872105487,6917.893,95.438,540.734,538.782,0.0
52131.0,STARLINK-3711,PAYLOAD,2024-02-03 23:59:37,15.0883628,0.0001435,53.2164,261.9475,98.2519,261.8635,4.2036e-05,3.81e-06,0.0,0 STARLINK-3711,1 52131U 22029AV  24034.99974430  .00000381  00000-0  42036-4 0  9996,2 52131  53.2164 261.9475 0001435  98.2519 261.8635 15.08836280105497,6917.892,95.438,540.749,538.764,0.0
52131.0,STARLINK-3711,PAYLOAD,2024-02-04 22:15:01,15.08840893,0.0001389,53.2163,257.783,93.8449,266.2702,6.6515e-05,7.71e-06,0.0,0 STARLINK-3711,1 52131U 22029AV  24035.92710154  .00000771  00000-0  66515-4 0  9992,2 52131  53.2163 257.7830 0001389  93.8449 266.2702 15.08840893105630,6917.878,95.437,540.704,538.782,0.0
52131.0,STARLINK-3711,PAYLOAD,2024-02-05 07:47:20,15.0883544,0.0001492,53.2168,255.9955,86.1413,273.9749,2.3605e-05,8.8e-07,0.0,0 STARLINK-3711,1 52131U 22029AV  24036.32454691  .00000088  00000-0  23605-4 0  9992,2 52131  53.2168 255.9955 0001492  86.1413 273.9749 15.08835440105698,6917.894,95.438,540.791,538.727,0.0
52131.0,STARLINK-3711,PAYLOAD,2024-02-05 22:05:49,15.08832498,0.0001443,53.2167,253.3198,86.5358,273.5799,7.2686e-05,8.69e-06,0.0,0 STARLINK-3711,1 52131U 22029AV  24036.92070800  .00000869  00000-0  72686-4 0  9994,2 52131  53.2167 253.3198 0001443  86.5358 273.5799 15.08832498105787,6917.903,95.438,540.767,538.77,0.0
52131.0,STARLINK-3711,PAYLOAD,2024-02-05 23:41:12,15.08838784,0.0001457,53.2166,253.0217,86.4839,273.632,1.0199e-05,-1.26e-06,0.0,0 STARLINK-3711,1 52131U 22029AV  24036.98694623 -.00000126  00000-0  10199-4 0  9993,2 52131  53.2166 253.0217 0001457  86.4839 273.6320 15.08838784105799,6917.884,95.438,540.757,538.741,0.0
52131.0,STARLINK-3711,PAYLOAD,2024-02-06 18:45:49,15.08844898,0.0001441,53.2167,249.4534,86.3023,273.8134,1.5377e-05,-4.3e-07,0.0,0 STARLINK-3711,1 52131U 22029AV  24037.78182115 -.00000043  00000-0  15377-4 0  9991,2 52131  53.2167 249.4534 0001441  86.3023 273.8134 15.08844898105910,6917.865,95.437,540.727,538.734,0.0
